[{"OBJECT_NAME":"SDGSAT 1","OBJECT_ID":"2021-100A","EPOCH":"2026-03-09T22:25:47.765568","MEAN_MOTION":15.19363772,"ECCENTRICITY":0.00064261,"INCLINATION":97.2774,"RA_OF_ASC_NODE":119.531,"ARG_OF_PERICENTER":284.1748,"MEAN_ANOMALY":75.8773,"EPHEMERIS_TYPE":0,"CLASSIFICATION_TYPE":"U","NORAD_CAT_ID":49387,"ELEMENT_SET_NO":999,"REV_AT_EPOCH":24084,"BSTAR":0.00015779611,"MEAN_MOTION_DOT":3.272e-5,"MEAN_MOTION_DDOT":0},{"OBJECT_NAME":"STARLINK-30239","OBJECT_ID":"2023-096B","EPOCH":"2026-03-09T22:00:01.999584","MEAN_MOTION":15.17291033,"ECCENTRICITY":0.00011539,"INCLINATION":42.9992,"RA_OF_ASC_NODE":221.2546,"ARG_OF_PERICENTER":297.0499,"MEAN_ANOMALY":275.4383,"EPHEMERIS_TYPE":0,"CLASSIFICATION_TYPE":"U","NORAD_CAT_ID":57291,"ELEMENT_SET_NO":999,"REV_AT_EPOCH":578,"BSTAR":0.0046931464,"MEAN_MOTION_DOT":0.00096291,"MEAN_MOTION_DDOT":0}]
